$$SOE
2461288.500000000, A.D. 2026-Sep-05 00:00:00.0000, 2.349427141003355E+08, -1.285461604047229E+08, 4.724370933979401E+07,
2461295.500000000, A.D. 2026-Sep-12 00:00:00.0000, 2.424362065827340E+08, -1.153057645843615E+08, 4.660876082687758E+07,
2461302.500000000, A.D. 2026-Sep-19 00:00:00.0000, 2.493481662518581E+08, -1.017887507350031E+08, 4.586200020206080E+07,
2461309.500000000, A.D. 2026-Sep-26 00:00:00.0000, 2.556667597843869E+08, -8.802947043693107E+07, 4.500609091592193E+07,
2461316.500000000, A.D. 2026-Oct-03 00:00:00.0000, 2.613830258406107E+08, -7.406274982650137E+07, 4.404413838583458E+07,
2461323.500000000, A.D. 2026-Oct-10 00:00:00.0000, 2.664908658660875E+08, -5.992357426136447E+07, 4.297964982446052E+07,
2461330.500000000, A.D. 2026-Oct-17 00:00:00.0000, 2.709869925347641E+08, -4.564678451241243E+07, 4.181648982349440E+07,
2461337.500000000, A.D. 2026-Oct-24 00:00:00.0000, 2.748708394898067E+08, -3.126679083410992E+07, 4.055883296539956E+07,
2461344.500000000, A.D. 2026-Oct-31 00:00:00.0000, 2.781444371083869E+08, -1.681731027963934E+07, 3.921111472787198E+07,
2461351.500000000, A.D. 2026-Nov-07 00:00:00.0000, 2.808122599497051E+08, -2.331131308958123E+06, 3.777798187355274E+07,
2461358.500000000, A.D. 2026-Nov-14 00:00:00.0000, 2.828810518041021E+08, 1.216009232735832E+07, 3.626424349157000E+07,
2461365.500000000, A.D. 2026-Nov-21 00:00:00.0000, 2.843596323877898E+08, 2.662601747154554E+07, 3.467482389770906E+07,
2461372.500000000, A.D. 2026-Nov-28 00:00:00.0000, 2.852586904223590E+08, 4.103775368842322E+07, 3.301471806804800E+07,
2461379.500000000, A.D. 2026-Dec-05 00:00:00.0000, 2.855905720942361E+08, 5.536797147982371E+07, 3.128894987217876E+07,
2461386.500000000, A.D. 2026-Dec-12 00:00:00.0000, 2.853690699253857E+08, 6.959098104805127E+07, 2.950253382612503E+07,
2461393.500000000, A.D. 2026-Dec-19 00:00:00.0000, 2.846092144270434E+08, 8.368278363947584E+07, 2.766044085830650E+07,
2461400.500000000, A.D. 2026-Dec-26 00:00:00.0000, 2.833270719764335E+08, 9.762109711330900E+07, 2.576756819949267E+07,
2461407.500000000, A.D. 2027-Jan-02 00:00:00.0000, 2.815395520752049E+08, 1.113853583771364E+08, 2.382871339140165E+07,
2461414.500000000, A.D. 2027-Jan-09 00:00:00.0000, 2.792642263066558E+08, 1.249567057081870E+08, 2.184855232861412E+07,
2461421.500000000, A.D. 2027-Jan-16 00:00:00.0000, 2.765191605886512E+08, 1.383179440027541E+08, 1.983162116551873E+07,
2461428.500000000, A.D. 2027-Jan-23 00:00:00.0000, 2.733227617546632E+08, 1.514534958757336E+08, 1.778230184729378E+07,
2461435.500000000, A.D. 2027-Jan-30 00:00:00.0000, 2.696936391376923E+08, 1.643493413698691E+08, 1.570481096257298E+07,
2461442.500000000, A.D. 2027-Feb-06 00:00:00.0000, 2.656504816487864E+08, 1.769929492059780E+08, 1.360319159479080E+07,
2461449.500000000, A.D. 2027-Feb-13 00:00:00.0000, 2.612119496068349E+08, 1.893732031282824E+08, 1.148130798623411E+07,
2461456.500000000, A.D. 2027-Feb-20 00:00:00.0000, 2.563965784002428E+08, 2.014803246267425E+08, 9.342842839122638E+06,
2461463.500000000, A.D. 2027-Feb-27 00:00:00.0000, 2.512226946419474E+08, 2.133057906271272E+08, 7.191296544543684E+06,
2461470.500000000, A.D. 2027-Mar-06 00:00:00.0000, 2.457083469624141E+08, 2.248422495907354E+08, 5.029987912618130E+06,
2461477.500000000, A.D. 2027-Mar-13 00:00:00.0000, 2.398712488678234E+08, 2.360834393352112E+08, 2.862056431407973E+06,
2461484.500000000, A.D. 2027-Mar-20 00:00:00.0000, 2.337287315208564E+08, 2.470241067724771E+08, 6.904658279489875E+05,
2461491.500000000, A.D. 2027-Mar-27 00:00:00.0000, 2.272977056270724E+08, 2.576599298318767E+08, -1.481991368714988E+06,
2461498.500000000, A.D. 2027-Apr-03 00:00:00.0000, 2.205946316287365E+08, 2.679874421475832E+08, -3.652688496110082E+06,
2461505.500000000, A.D. 2027-Apr-10 00:00:00.0000, 2.136354973037929E+08, 2.780039609949483E+08, -5.819158847971722E+06,
2461512.500000000, A.D. 2027-Apr-17 00:00:00.0000, 2.064358018803042E+08, 2.877075187820542E+08, -7.979089349458203E+06,
2461519.500000000, A.D. 2027-Apr-24 00:00:00.0000, 1.990105458951087E+08, 2.970967982365739E+08, -1.013031396870159E+07,
2461526.500000000, A.D. 2027-May-01 00:00:00.0000, 1.913742263131668E+08, 3.061710714209107E+08, -1.227080700731140E+07,
2461533.500000000, A.D. 2027-May-08 00:00:00.0000, 1.835408365030136E+08, 3.149301433496680E+08, -1.439867633556083E+07,
2461540.500000000, A.D. 2027-May-15 00:00:00.0000, 1.755238689278544E+08, 3.233743011195555E+08, -1.651215643864347E+07,
2461547.500000000, A.D. 2027-May-22 00:00:00.0000, 1.673363184048872E+08, 3.315042658674226E+08, -1.860960140739937E+07,
2461554.500000000, A.D. 2027-May-29 00:00:00.0000, 1.589906887751054E+08, 3.393211459701893E+08, -2.068947835391714E+07,
2461561.500000000, A.D. 2027-Jun-05 00:00:00.0000, 1.504990034220234E+08, 3.468263944679917E+08, -2.275036111982211E+07,
2461568.500000000, A.D. 2027-Jun-12 00:00:00.0000, 1.418728172360475E+08, 3.540217709668398E+08, -2.479092408967070E+07,
2461575.500000000, A.D. 2027-Jun-19 00:00:00.0000, 1.331232293483864E+08, 3.609093069004933E+08, -2.680993617870608E+07,
2461582.500000000, A.D. 2027-Jun-26 00:00:00.0000, 1.242608966171038E+08, 3.674912736982453E+08, -2.880625505820800E+07,
2461589.500000000, A.D. 2027-Jul-03 00:00:00.0000, 1.152960477422138E+08, 3.737701536706479E+08, -3.077882163983849E+07,
2461596.500000000, A.D. 2027-Jul-10 00:00:00.0000, 1.062384978266993E+08, 3.797486134260153E+08, -3.272665482608818E+07,
2461603.500000000, A.D. 2027-Jul-17 00:00:00.0000, 9.709766323077963E+07, 3.854294795890359E+08, -3.464884653346094E+07,
2461610.500000000, A.D. 2027-Jul-24 00:00:00.0000, 8.788257671600902E+07, 3.908157165793834E+08, -3.654455700530298E+07,
2461617.500000000, A.D. 2027-Jul-31 00:00:00.0000, 7.860190315910475E+07, 3.959104065180058E+08, -3.841301042878146E+07,
2461624.500000000, A.D. 2027-Aug-07 00:00:00.0000, 6.926395552996421E+07, 4.007167322541342E+08, -4.025349073865263E+07,
2461631.500000000, A.D. 2027-Aug-14 00:00:00.0000, 5.987670874988041E+07, 4.052379631041330E+08, -4.206533741077919E+07,
2461638.500000000, A.D. 2027-Aug-21 00:00:00.0000, 5.044781197722545E+07, 4.094774397870778E+08, -4.384794156757931E+07,
2461645.500000000, A.D. 2027-Aug-28 00:00:00.0000, 4.098460269382876E+07, 4.134385596256134E+08, -4.560074260266066E+07,
2461652.500000000, A.D. 2027-Sep-04 00:00:00.0000, 3.149412136961730E+07, 4.171247643882851E+08, -4.732322500285450E+07,
2461659.500000000, A.D. 2027-Sep-11 00:00:00.0000, 2.198312527771458E+07, 4.205395299909152E+08, -4.901491528334865E+07,
2461666.500000000, A.D. 2027-Sep-18 00:00:00.0000, 1.245810156811294E+07, 4.236863572958637E+08, -5.067537909074360E+07,
2461673.500000000, A.D. 2027-Sep-25 00:00:00.0000, 2.925279811608416E+06, 4.265687638304547E+08, -5.230421849117434E+07,
2461680.500000000, A.D. 2027-Oct-02 00:00:00.0000, -6.609355921372572E+06, 4.291902763594916E+08, -5.390106943819520E+07,
2461687.500000000, A.D. 2027-Oct-09 00:00:00.0000, -1.614005542951398E+07, 4.315544242223678E+08, -5.546559941316049E+07,
2461694.500000000, A.D. 2027-Oct-16 00:00:00.0000, -2.566129113421755E+07, 4.336647333019894E+08, -5.699750523894185E+07,
2461701.500000000, A.D. 2027-Oct-23 00:00:00.0000, -3.516774695518226E+07, 4.355247205485829E+08, -5.849651108215424E+07,
2461708.500000000, A.D. 2027-Oct-30 00:00:00.0000, -4.465430692753644E+07, 4.371378896041909E+08, -5.996236661975484E+07,
2461715.500000000, A.D. 2027-Nov-06 00:00:00.0000, -5.411604471520387E+07, 4.385077285980702E+08, -6.139484516323797E+07,
2461722.500000000, A.D. 2027-Nov-13 00:00:00.0000, -6.354821599379784E+07, 4.396377079817265E+08, -6.279374171989687E+07,
2461729.500000000, A.D. 2027-Nov-20 00:00:00.0000, -7.294625079029600E+07, 4.405312761652926E+08, -6.415887142721368E+07,
2461736.500000000, A.D. 2027-Nov-27 00:00:00.0000, -8.230574415144978E+07, 4.411918558766847E+08, -6.549006825964129E+07,
2461743.500000000, A.D. 2027-Dec-04 00:00:00.0000, -9.162244715002565E+07, 4.416228421188675E+08, -6.678718374142864E+07,
2461750.500000000, A.D. 2027-Dec-11 00:00:00.0000, -1.008922587643369E+08, 4.418276007236507E+08, -6.805008568715920E+07,
2461757.500000000, A.D. 2027-Dec-18 00:00:00.0000, -1.101112183415258E+08, 4.418094671286687E+08, -6.927865701656313E+07,
2461764.500000000, A.D. 2027-Dec-25 00:00:00.0000, -1.192754984779367E+08, 4.415717453446494E+08, -7.047279465179713E+07,
2461771.500000000, A.D. 2028-Jan-01 00:00:00.0000, -1.283813982603989E+08, 4.411177070996041E+08, -7.163240849416602E+07,
$$EOE